start=new Date('2022-12-08T00:00:00.000Z').valueOf();
sats=[{"EPHEMERIS_TYPE":"0","GP_ID":"219741760","PERIOD":"95.438","MEAN_ELEMENT_THEORY":"SGP4","EPOCH":"2022-12-07T17:19:39.770976","MEAN_MOTION_DOT":"-0.00000649","BSTAR":"-0.00002268400000","REV_AT_EPOCH":"5619","PERIAPSIS":"538.335","NORAD_CAT_ID":"49737","APOAPSIS":"541.160","MEAN_MOTION":"15.08839323","TIME_SYSTEM":"UTC","COUNTRY_CODE":"US","FILE":"3684212","TLE_LINE2":"2 49737  53.2172  82.1213 0002042  42.2334 317.8815 15.08839323 56191","RA_OF_ASC_NODE":"82.1213","ELEMENT_SET_NO":"999","DECAY_DATE":null,"OBJECT_NAME":"STARLINK-3225","SEMIMAJOR_AXIS":"6917.882","MEAN_ANOMALY":"317.8815","ARG_OF_PERICENTER":"42.2334","OBJECT_TYPE":"PAYLOAD","INCLINATION":"53.2172","TLE_LINE1":"1 49737U 21115P   22341.72198809 -.00000649  00000-0 -22684-4 0  9993","REF_FRAME":"TEME","LAUNCH_DATE":"2021-12-02","CENTER_NAME":"EARTH","RCS_SIZE":"LARGE","SITE":"AFETR","ECCENTRICITY":"0.00020420","CLASSIFICATION_TYPE":"U","OBJECT_ID":"2021-115P","MEAN_MOTION_DDOT":"0.0000000000000"},{"INCLINATION":"53.2171","OBJECT_TYPE":"PAYLOAD","MEAN_ANOMALY":"329.7998","ARG_OF_PERICENTER":"30.3117","SITE":"AFETR","RCS_SIZE":"LARGE","OBJECT_ID":"2021-115Q","MEAN_MOTION_DDOT":"0.0000000000000","ECCENTRICITY":"0.00021230","CLASSIFICATION_TYPE":"U","TLE_LINE1":"1 49738U 21115Q   22341.53063038  .00000190  00000-0  30023-4 0  9993","LAUNCH_DATE":"2021-12-02","CENTER_NAME":"EARTH","REF_FRAME":"TEME","EPOCH":"2022-12-07T12:44:06.464832","MEAN_MOTION_DOT":"0.00000190","MEAN_ELEMENT_THEORY":"SGP4","REV_AT_EPOCH":"5616","PERIAPSIS":"538.294","BSTAR":"0.00003002300000","EPHEMERIS_TYPE":"0","GP_ID":"219742010","PERIOD":"95.438","TLE_LINE2":"2 49738  53.2171  82.9731 0002123  30.3117 329.7998 15.08834208 56169","ELEMENT_SET_NO":"999","RA_OF_ASC_NODE":"82.9731","FILE":"3684212","SEMIMAJOR_AXIS":"6917.898","OBJECT_NAME":"STARLINK-3143","DECAY_DATE":null,"MEAN_MOTION":"15.08834208","NORAD_CAT_ID":"49738","APOAPSIS":"541.232","TIME_SYSTEM":"UTC","COUNTRY_CODE":"US"},{"TLE_LINE1":"1 49739U 21115R   22341.57755734  .00001040  00000-0  83500-4 0  9992","REF_FRAME":"TEME","CENTER_NAME":"EARTH","LAUNCH_DATE":"2021-12-02","RCS_SIZE":"LARGE","SITE":"AFETR","CLASSIFICATION_TYPE":"U","ECCENTRICITY":"0.00026290","OBJECT_ID":"2021-115R","MEAN_MOTION_DDOT":"0.0000000000000","ARG_OF_PERICENTER":"26.2182","MEAN_ANOMALY":"333.8943","OBJECT_TYPE":"PAYLOAD","INCLINATION":"53.2199","APOAPSIS":"541.610","NORAD_CAT_ID":"49739","MEAN_MOTION":"15.08824914","COUNTRY_CODE":"US","TIME_SYSTEM":"UTC","FILE":"3684212","ELEMENT_SET_NO":"999","RA_OF_ASC_NODE":"92.7737","TLE_LINE2":"2 49739  53.2199  92.7737 0002629  26.2182 333.8943 15.08824914 56026","DECAY_DATE":null,"OBJECT_NAME":"STARLINK-3155","SEMIMAJOR_AXIS":"6917.927","GP_ID":"219742261","EPHEMERIS_TYPE":"0","PERIOD":"95.439","MEAN_ELEMENT_THEORY":"SGP4","MEAN_MOTION_DOT":"0.00001040","EPOCH":"2022-12-07T13:51:40.954176","BSTAR":"0.00008350000000","PERIAPSIS":"537.973","REV_AT_EPOCH":"5602"},{"SITE":"AFETR","RCS_SIZE":"LARGE","OBJECT_ID":"2021-115S","MEAN_MOTION_DDOT":"0.0000000000000","CLASSIFICATION_TYPE":"U","ECCENTRICITY":"0.00023330","TLE_LINE1":"1 49740U 21115S   22341.80663012  .00000818  00000-0  69476-4 0  9995","CENTER_NAME":"EARTH","LAUNCH_DATE":"2021-12-02","REF_FRAME":"TEME","INCLINATION":"53.2183","OBJECT_TYPE":"PAYLOAD","ARG_OF_PERICENTER":"36.2320","MEAN_ANOMALY":"323.8830","RA_OF_ASC_NODE":"81.7309","ELEMENT_SET_NO":"999","TLE_LINE2":"2 49740  53.2183  81.7309 0002333  36.2320 323.8830 15.08838348 56201","FILE":"3684212","SEMIMAJOR_AXIS":"6917.885","OBJECT_NAME":"STARLINK-3226","DECAY_DATE":null,"MEAN_MOTION":"15.08838348","APOAPSIS":"541.364","NORAD_CAT_ID":"49740","COUNTRY_CODE":"US","TIME_SYSTEM":"UTC","MEAN_MOTION_DOT":"0.00000818","EPOCH":"2022-12-07T19:21:32.842368","MEAN_ELEMENT_THEORY":"SGP4","PERIAPSIS":"538.136","REV_AT_EPOCH":"5620","BSTAR":"0.00006947600000","GP_ID":"219742510","EPHEMERIS_TYPE":"0","PERIOD":"95.438"},{"SEMIMAJOR_AXIS":"6917.884","DECAY_DATE":null,"OBJECT_NAME":"STARLINK-3244","RA_OF_ASC_NODE":"82.9497","ELEMENT_SET_NO":"999","TLE_LINE2":"2 49741  53.2206  82.9497 0002198  16.5837 343.5227 15.08838793 56160","FILE":"3684212","COUNTRY_CODE":"US","TIME_SYSTEM":"UTC","MEAN_MOTION":"15.08838793","APOAPSIS":"541.270","NORAD_CAT_ID":"49741","PERIAPSIS":"538.229","REV_AT_EPOCH":"5616","BSTAR":"-0.00003875800000","MEAN_MOTION_DOT":"-0.00000905","EPOCH":"2022-12-07T12:49:24.483360","MEAN_ELEMENT_THEORY":"SGP4","PERIOD":"95.438","GP_ID":"219741260","EPHEMERIS_TYPE":"0","OBJECT_ID":"2021-115T","MEAN_MOTION_DDOT":"0.0000000000000","CLASSIFICATION_TYPE":"U","ECCENTRICITY":"0.00021980","SITE":"AFETR","RCS_SIZE":"LARGE","CENTER_NAME":"EARTH","LAUNCH_DATE":"2021-12-02","REF_FRAME":"TEME","TLE_LINE1":"1 49741U 21115T   22341.53431115 -.00000905  00000-0 -38758-4 0  9991","INCLINATION":"53.2206","OBJECT_TYPE":"PAYLOAD","ARG_OF_PERICENTER":"16.5837","MEAN_ANOMALY":"343.5227"},{"ARG_OF_PERICENTER":"38.3665","MEAN_ANOMALY":"321.7511","OBJECT_TYPE":"PAYLOAD","INCLINATION":"53.2179","REF_FRAME":"TEME","CENTER_NAME":"EARTH","LAUNCH_DATE":"2021-12-02","TLE_LINE1":"1 49742U 21115U   22341.81405089 -.00011373  00000-0 -69885-3 0  9999","CLASSIFICATION_TYPE":"U","ECCENTRICITY":"0.00025950","MEAN_MOTION_DDOT":"0.0000000000000","OBJECT_ID":"2021-115U","RCS_SIZE":"LARGE","SITE":"AFETR","PERIOD":"95.442","GP_ID":"219741510","EPHEMERIS_TYPE":"0","BSTAR":"-0.00069885000000","PERIAPSIS":"538.160","REV_AT_EPOCH":"5620","MEAN_ELEMENT_THEORY":"SGP4","MEAN_MOTION_DOT":"-0.00011373","EPOCH":"2022-12-07T19:32:13.996896","COUNTRY_CODE":"US","TIME_SYSTEM":"UTC","APOAPSIS":"541.750","NORAD_CAT_ID":"49742","MEAN_MOTION":"15.08771349","DECAY_DATE":null,"OBJECT_NAME":"STARLINK-3202","SEMIMAJOR_AXIS":"6918.090","FILE":"3684212","ELEMENT_SET_NO":"999","RA_OF_ASC_NODE":"81.7045","TLE_LINE2":"2 49742  53.2179  81.7045 0002595  38.3665 321.7511 15.08771349 56200"},{"RCS_SIZE":"LARGE","SITE":"AFETR","ECCENTRICITY":"0.00022100","CLASSIFICATION_TYPE":"U","OBJECT_ID":"2021-115V","MEAN_MOTION_DDOT":"0.0000000000000","TLE_LINE1":"1 49743U 21115V   22341.53798367  .00000678  00000-0  60715-4 0  9991","REF_FRAME":"TEME","LAUNCH_DATE":"2021-12-02","CENTER_NAME":"EARTH","INCLINATION":"53.2179","MEAN_ANOMALY":"323.7782","ARG_OF_PERICENTER":"36.3359","OBJECT_TYPE":"PAYLOAD","FILE":"3684212","TLE_LINE2":"2 49743  53.2179  82.9410 0002210  36.3359 323.7782 15.08841982 56160","ELEMENT_SET_NO":"999","RA_OF_ASC_NODE":"82.9410","OBJECT_NAME":"STARLINK-3239","DECAY_DATE":null,"SEMIMAJOR_AXIS":"6917.874","NORAD_CAT_ID":"49743","APOAPSIS":"541.268","MEAN_MOTION":"15.08841982","TIME_SYSTEM":"UTC","COUNTRY_CODE":"US","MEAN_ELEMENT_THEORY":"SGP4","EPOCH":"2022-12-07T12:54:41.789088","MEAN_MOTION_DOT":"0.00000678","BSTAR":"0.00006071500000","REV_AT_EPOCH":"5616","PERIAPSIS":"538.210","EPHEMERIS_TYPE":"0","GP_ID":"219742762","PERIOD":"95.437"},{"OBJECT_TYPE":"PAYLOAD","MEAN_ANOMALY":"324.7002","ARG_OF_PERICENTER":"35.4140","INCLINATION":"53.2169","LAUNCH_DATE":"2021-12-02","CENTER_NAME":"EARTH","REF_FRAME":"TEME","TLE_LINE1":"1 49744U 21115W   22341.75510637  .00002661  00000-0  18523-3 0  9991","MEAN_MOTION_DDOT":"0.0000000000000","OBJECT_ID":"2021-115W","ECCENTRICITY":"0.00022670","CLASSIFICATION_TYPE":"U","SITE":"AFETR","RCS_SIZE":"MEDIUM","PERIOD":"95.437","EPHEMERIS_TYPE":"0","GP_ID":"219743010","REV_AT_EPOCH":"5619","PERIAPSIS":"538.166","BSTAR":"0.00018523000000","EPOCH":"2022-12-07T18:07:21.190368","MEAN_MOTION_DOT":"0.00002661","MEAN_ELEMENT_THEORY":"SGP4","TIME_SYSTEM":"UTC","COUNTRY_CODE":"US","MEAN_MOTION":"15.08843496","NORAD_CAT_ID":"49744","APOAPSIS":"541.303","SEMIMAJOR_AXIS":"6917.870","OBJECT_NAME":"STARLINK-3231","DECAY_DATE":null,"TLE_LINE2":"2 49744  53.2169  81.9612 0002267  35.4140 324.7002 15.08843496 56194","RA_OF_ASC_NODE":"81.9612","ELEMENT_SET_NO":"999","FILE":"3684212"},{"OBJECT_ID":"2021-115X","MEAN_MOTION_DDOT":"0.0000000000000","CLASSIFICATION_TYPE":"U","ECCENTRICITY":"0.00019220","SITE":"AFETR","RCS_SIZE":"LARGE","CENTER_NAME":"EARTH","LAUNCH_DATE":"2021-12-02","REF_FRAME":"TEME","TLE_LINE1":"1 49745U 21115X   22341.54537165 -.00000950  00000-0 -41591-4 0  9997","INCLINATION":"53.2182","OBJECT_TYPE":"PAYLOAD","ARG_OF_PERICENTER":"13.1402","MEAN_ANOMALY":"346.9640","SEMIMAJOR_AXIS":"6917.927","DECAY_DATE":null,"OBJECT_NAME":"STARLINK-3241","ELEMENT_SET_NO":"999","RA_OF_ASC_NODE":"82.9167","TLE_LINE2":"2 49745  53.2182  82.9167 0001922  13.1402 346.9640 15.08824744 57276","FILE":"3683838","COUNTRY_CODE":"US","TIME_SYSTEM":"UTC","MEAN_MOTION":"15.08824744","APOAPSIS":"541.122","NORAD_CAT_ID":"49745","PERIAPSIS":"538.462","REV_AT_EPOCH":"5727","BSTAR":"-0.00004159100000","MEAN_MOTION_DOT":"-0.00000950","EPOCH":"2022-12-07T13:05:20.110560","MEAN_ELEMENT_THEORY":"SGP4","PERIOD":"95.439","GP_ID":"219712721","EPHEMERIS_TYPE":"0"},{"PERIOD":"95.437","EPHEMERIS_TYPE":"0","GP_ID":"219742011","BSTAR":"0.00015274000000","REV_AT_EPOCH":"5618","PERIAPSIS":"537.981","MEAN_ELEMENT_THEORY":"SGP4","EPOCH":"2022-12-07T16:42:33.883200","MEAN_MOTION_DOT":"0.00002144","TIME_SYSTEM":"UTC","COUNTRY_CODE":"US","NORAD_CAT_ID":"49746","APOAPSIS":"541.487","MEAN_MOTION":"15.08843768","OBJECT_NAME":"STARLINK-3233","DECAY_DATE":null,"SEMIMAJOR_AXIS":"6917.869","FILE":"3684212","TLE_LINE2":"2 49746  53.2176  82.2191 0002534  41.0523 319.0660 15.08843768 56183","ELEMENT_SET_NO":"999","RA_OF_ASC_NODE":"82.2191","MEAN_ANOMALY":"319.0660","ARG_OF_PERICENTER":"41.0523","OBJECT_TYPE":"PAYLOAD","INCLINATION":"53.2176","REF_FRAME":"TEME","LAUNCH_DATE":"2021-12-02","CENTER_NAME":"EARTH","TLE_LINE1":"1 49746U 21115Y   22341.69622550  .00002144  00000-0  15274-3 0  9990","ECCENTRICITY":"0.00025340","CLASSIFICATION_TYPE":"U","OBJECT_ID":"2021-115Y","MEAN_MOTION_DDOT":"0.0000000000000","RCS_SIZE":"MEDIUM","SITE":"AFETR"}];
